{
  "type": "FeatureCollection",
  "features": [
    {
      "type": "Feature",
      "properties": {
        "norad_id": 31955,
        "name": "FENGYUN 1C DEB",
        "group": "fengyun-1c-debris",
        "lat": -11.38429448718652,
        "lon": 31.61687323971828,
        "alt_km": 656.6992226122766,
        "timestamp": "2025-12-03T19:33:07.261099+00:00",
        "meta_object_name": "FENGYUN 1C DEB",
        "meta_object_id": "1999-025CNG",
        "meta_epoch": "2025-12-01T10:04:40.844352",
        "meta_mean_motion": 14.63569936,
        "meta_eccentricity": 0.00433189,
        "meta_inclination": 99.2819,
        "meta_ra_of_asc_node": 210.8104,
        "meta_arg_of_pericenter": 216.6012,
        "meta_mean_anomaly": 324.4178,
        "meta_ephemeris_type": 0,
        "meta_classification_type": "U",
        "meta_norad_cat_id": 31955,
        "meta_element_set_no": 999,
        "meta_rev_at_epoch": 96391,
        "meta_bstar": 0.0022136753,
        "meta_mean_motion_dot": 0.00011605,
        "meta_mean_motion_ddot": 0,
        "tle_line1": "1 31955U 99025CNG 25335.41991718  .00011605  00000+0  22137-2 0  9995",
        "tle_line2": "2 31955  99.2819 210.8104 0043318 216.6012 324.4178 14.63569936963915"
      },
      "geometry": {
        "type": "Point",
        "coordinates": [
          31.61687323971828,
          -11.38429448718652
        ]
      }
    },
    {
      "type": "Feature",
      "properties": {
        "norad_id": 31959,
        "name": "FENGYUN 1C DEB",
        "group": "fengyun-1c-debris",
        "lat": 68.51557990452794,
        "lon": -173.58009744561994,
        "alt_km": 738.3237124466768,
        "timestamp": "2025-12-03T19:33:07.261117+00:00",
        "meta_object_name": "FENGYUN 1C DEB",
        "meta_object_id": "1999-025CNL",
        "meta_epoch": "2025-12-03T09:15:58.403232",
        "meta_mean_motion": 14.4647152,
        "meta_eccentricity": 0.0026561,
        "meta_inclination": 98.5103,
        "meta_ra_of_asc_node": 208.3494,
        "meta_arg_of_pericenter": 186.1807,
        "meta_mean_anomaly": 173.9061,
        "meta_ephemeris_type": 0,
        "meta_classification_type": "U",
        "meta_norad_cat_id": 31959,
        "meta_element_set_no": 999,
        "meta_rev_at_epoch": 64218,
        "meta_bstar": 0.0034526,
        "meta_mean_motion_dot": 0.0001245,
        "meta_mean_motion_ddot": 0,
        "tle_line1": "1 31959U 99025CNL 25337.38609263  .00012450  00000+0  34526-2 0  9992",
        "tle_line2": "2 31959  98.5103 208.3494 0026561 186.1807 173.9061 14.46471520642188"
      },
      "geometry": {
        "type": "Point",
        "coordinates": [
          -173.58009744561994,
          68.51557990452794
        ]
      }
    },
    {
      "type": "Feature",
      "properties": {
        "norad_id": 31964,
        "name": "FENGYUN 1C DEB",
        "group": "fengyun-1c-debris",
        "lat": -15.815032765158458,
        "lon": -81.45170219809646,
        "alt_km": 718.5923192603377,
        "timestamp": "2025-12-03T19:33:07.261135+00:00",
        "meta_object_name": "FENGYUN 1C DEB",
        "meta_object_id": "1999-025CNR",
        "meta_epoch": "2025-12-03T07:07:49.497024",
        "meta_mean_motion": 14.5811134,
        "meta_eccentricity": 0.0028951,
        "meta_inclination": 98.6996,
        "meta_ra_of_asc_node": 100.4929,
        "meta_arg_of_pericenter": 61.9427,
        "meta_mean_anomaly": 298.4693,
        "meta_ephemeris_type": 0,
        "meta_classification_type": "U",
        "meta_norad_cat_id": 31964,
        "meta_element_set_no": 999,
        "meta_rev_at_epoch": 67372,
        "meta_bstar": 0.0035887,
        "meta_mean_motion_dot": 0.00016609,
        "meta_mean_motion_ddot": 0,
        "tle_line1": "1 31964U 99025CNR 25337.29710066  .00016609  00000+0  35887-2 0  9993",
        "tle_line2": "2 31964  98.6996 100.4929 0028951  61.9427 298.4693 14.58111340673725"
      },
      "geometry": {
        "type": "Point",
        "coordinates": [
          -81.45170219809646,
          -15.815032765158458
        ]
      }
    },
    {
      "type": "Feature",
      "properties": {
        "norad_id": 31966,
        "name": "FENGYUN 1C DEB",
        "group": "fengyun-1c-debris",
        "lat": -59.264641280415994,
        "lon": -65.97603964658981,
        "alt_km": 647.7449468994992,
        "timestamp": "2025-12-03T19:33:07.261155+00:00",
        "meta_object_name": "FENGYUN 1C DEB",
        "meta_object_id": "1999-025CNT",
        "meta_epoch": "2025-11-30T16:48:16.407360",
        "meta_mean_motion": 14.67276543,
        "meta_eccentricity": 0.00863938,
        "meta_inclination": 99.0163,
        "meta_ra_of_asc_node": 126.0883,
        "meta_arg_of_pericenter": 312.0125,
        "meta_mean_anomaly": 47.3743,
        "meta_ephemeris_type": 0,
        "meta_classification_type": "U",
        "meta_norad_cat_id": 31966,
        "meta_element_set_no": 999,
        "meta_rev_at_epoch": 65566,
        "meta_bstar": 0.0011078085,
        "meta_mean_motion_dot": 6.547e-05,
        "meta_mean_motion_ddot": 0,
        "tle_line1": "1 31966U 99025CNT 25334.70018990  .00006547  00000+0  11078-2 0  9991",
        "tle_line2": "2 31966  99.0163 126.0883 0086393 312.0125  47.3743 14.67276543655667"
      },
      "geometry": {
        "type": "Point",
        "coordinates": [
          -65.97603964658981,
          -59.264641280415994
        ]
      }
    },
    {
      "type": "Feature",
      "properties": {
        "norad_id": 31972,
        "name": "FENGYUN 1C DEB",
        "group": "fengyun-1c-debris",
        "lat": 44.09154497674444,
        "lon": 10.24423908429085,
        "alt_km": 809.2334902053817,
        "timestamp": "2025-12-03T19:33:07.261166+00:00",
        "meta_object_name": "FENGYUN 1C DEB",
        "meta_object_id": "1999-025CNZ",
        "meta_epoch": "2025-12-03T02:24:22.277376",
        "meta_mean_motion": 14.07502652,
        "meta_eccentricity": 0.00773129,
        "meta_inclination": 99.2135,
        "meta_ra_of_asc_node": 18.5628,
        "meta_arg_of_pericenter": 58.4983,
        "meta_mean_anomaly": 328.6436,
        "meta_ephemeris_type": 0,
        "meta_classification_type": "U",
        "meta_norad_cat_id": 31972,
        "meta_element_set_no": 999,
        "meta_rev_at_epoch": 94825,
        "meta_bstar": 0.00019871825,
        "meta_mean_motion_dot": 2.98e-06,
        "meta_mean_motion_ddot": 0,
        "tle_line1": "1 31972U 99025CNZ 25337.10025784  .00000298  00000+0  19872-3 0  9992",
        "tle_line2": "2 31972  99.2135  18.5628 0077312  58.4983 328.6436 14.07502652948252"
      },
      "geometry": {
        "type": "Point",
        "coordinates": [
          10.24423908429085,
          44.09154497674444
        ]
      }
    },
    {
      "type": "Feature",
      "properties": {
        "norad_id": 31974,
        "name": "FENGYUN 1C DEB",
        "group": "fengyun-1c-debris",
        "lat": 7.9719241456513075,
        "lon": 170.46490392457085,
        "alt_km": 843.3565102716148,
        "timestamp": "2025-12-03T19:33:07.261177+00:00",
        "meta_object_name": "FENGYUN 1C DEB",
        "meta_object_id": "1999-025CPB",
        "meta_epoch": "2025-12-03T12:01:37.238016",
        "meta_mean_motion": 14.29323737,
        "meta_eccentricity": 0.0071744,
        "meta_inclination": 98.3791,
        "meta_ra_of_asc_node": 348.9807,
        "meta_arg_of_pericenter": 330.394,
        "meta_mean_anomaly": 29.319,
        "meta_ephemeris_type": 0,
        "meta_classification_type": "U",
        "meta_norad_cat_id": 31974,
        "meta_element_set_no": 999,
        "meta_rev_at_epoch": 69290,
        "meta_bstar": 0.0032936,
        "meta_mean_motion_dot": 8.588e-05,
        "meta_mean_motion_ddot": 0,
        "tle_line1": "1 31974U 99025CPB 25337.50112544  .00008588  00000+0  32936-2 0  9994",
        "tle_line2": "2 31974  98.3791 348.9807 0071744 330.3940  29.3190 14.29323737692908"
      },
      "geometry": {
        "type": "Point",
        "coordinates": [
          170.46490392457085,
          7.9719241456513075
        ]
      }
    },
    {
      "type": "Feature",
      "properties": {
        "norad_id": 31978,
        "name": "FENGYUN 1C DEB",
        "group": "fengyun-1c-debris",
        "lat": -1.9854863095776174,
        "lon": -46.217891601473234,
        "alt_km": 1083.9356463574986,
        "timestamp": "2025-12-03T19:33:07.261187+00:00",
        "meta_object_name": "FENGYUN 1C DEB",
        "meta_object_id": "1999-025CPF",
        "meta_epoch": "2025-11-24T09:11:44.769120",
        "meta_mean_motion": 13.63055999,
        "meta_eccentricity": 0.02632898,
        "meta_inclination": 98.3792,
        "meta_ra_of_asc_node": 125.945,
        "meta_arg_of_pericenter": 98.6092,
        "meta_mean_anomaly": 264.4976,
        "meta_ephemeris_type": 0,
        "meta_classification_type": "U",
        "meta_norad_cat_id": 31978,
        "meta_element_set_no": 999,
        "meta_rev_at_epoch": 91340,
        "meta_bstar": 0.0013570438,
        "meta_mean_motion_dot": 1.31e-05,
        "meta_mean_motion_ddot": 0,
        "tle_line1": "1 31978U 99025CPF 25328.38315705  .00001310  00000+0  13570-2 0  9997",
        "tle_line2": "2 31978  98.3792 125.9450 0263289  98.6092 264.4976 13.63055999913403"
      },
      "geometry": {
        "type": "Point",
        "coordinates": [
          -46.217891601473234,
          -1.9854863095776174
        ]
      }
    }
  ]
}